SENTINEL-1A             
1 39634U 14016A   26188.87033550  .00000003  00000+0  10315-4 0  9999
2 39634  98.1785 196.1011 0001411  87.4243 272.7118 14.59200352653035
SENTINEL-1C             
1 62261U 24235A   26188.84115818  .00000131  00000+0  37578-4 0  9992
2 62261  98.1824 195.8550 0001379  89.8926 270.2432 14.59198571 84424
SENTINEL-1D             
1 66315U 25251A   26188.46416818 -.00000056  00000+0 -21272-5 0  9990
2 66315  98.1836 195.5384 0001335  91.5200 268.6153 14.59197696 35682
